OPS 6582 (TRANSIT 5B-5) 
1 00965U 64083D   25097.83692775  .00000082  00000+0  10172-3 0  9994
2 00965  90.0623 199.9220 0043411 110.4188  10.2117 13.56957931984563
LES-1                   
1 01002U 65008C   25098.10596797  .00000010  00000+0  28788-3 0  9996
2 01002  32.1491 355.3956 0015206 143.4509 216.7028  9.88354391173435
SOLRAD 7B               
1 01291U 65016D   25097.92506270  .00000118  00000+0  12624-3 0  9992
2 01291  70.0773  81.5885 0022361 326.1323  33.8353 13.94900383 56004
SECOR 4 (EGRS 4)        
1 01315U 65027B   25097.78557097 -.00000045  00000+0 -19291-3 0  9996
2 01315  90.2488   5.8065 0029370 256.7963 167.1511 12.92655864830670
TIROS 10                
1 01430U 65051A   25097.75970470  .00000443  00000+0  14815-3 0  9999
2 01430  98.4585 215.1786 0054495 307.4622  52.1617 14.41364988133186
ALOUETTE 2              
1 01804U 65098A   25097.89549144  .00000965  00000+0  31357-3 0  9999
2 01804  79.7967 286.8059 1332166  34.7620 333.3574 12.27800663625840
OV3-3                   
1 02389U 66070A   25098.46302697  .00018053  00000+0  85661-3 0  9997
2 02389  81.3340 350.8122 1063380 195.0853 161.6143 13.33227827540780
SECOR 7 (EGRS 7)        
1 02411U 66077B   25096.48347806  .00000022  00000+0  99654-2 0  9994
2 02411  90.3258 272.3379 0013620 137.2627 222.9286  8.59615710839856
ERS 15                  
1 02412U 66077C   25096.90899008  .00000002  00000+0  00000+0 0  9990
2 02412  90.3259 272.1377 0008312 143.3390 216.8031  8.59078329837072
ISIS 1                  
1 03669U 69009A   25097.80536299  .00000253  00000+0  16750-3 0  9994
2 03669  88.4583 191.9187 1708404  47.2581 326.0100 11.30253068310587
SECOR 13 (EGRS 13)      
1 03891U 69037B   25097.93010154 -.00000016  00000+0  47496-4 0  9993
2 03891  99.7141 341.9109 0038769 238.5600 131.4200 13.42953636743331
ATS 5                   
1 04068U 69069A   25097.87867420 -.00000161  00000+0  00000+0 0  9990
2 04068   1.0656 259.2612 0004831  17.7470 158.8526  0.99489717 41999
OPS 7613 (P/L 4)        
1 04237U 69082E   25097.94673983  .00000094  00000+0  10754-3 0  9995
2 04237  70.0152 313.6050 0021488 330.9636 128.2701 13.95901763825565
OPS 7613 (P/L 1)        
1 04256U 69082B   25097.91987443  .00000208  00000+0  18068-3 0  9995
2 04256  70.0098 179.9554 0022134 273.7151  86.1425 13.99031368829582
SHINSEI (MS-F2)         
1 05485U 71080A   25097.93036555  .00000013  00000+0  79177-6 0  9997
2 05485  32.0521 186.4647 0639780  41.1788 323.5320 12.74233051493861
PROSPERO (BLACK ARROW)  
1 05580U 71093A   25098.13431788  .00003068  00000+0  66049-3 0  9991
2 05580  82.0385 312.2724 0507471  33.4868 329.7316 14.00188552688707
OPS 7898 (P/L 2)        
1 05680U 71110C   25097.63051264  .00000016  00000+0  69776-4 0  9994
2 05680  69.9900 181.7481 0008328 337.0436  23.0285 13.74709371288359
NOAA 2 (ITOS-D)         
1 06235U 72082A   25098.04204400 -.00000005  00000+0  26036-3 0  9998
2 06235 102.0244 106.5110 0003653 279.9910  82.9006 12.53198391400662
OSCAR 7 (AO-7)          
1 07530U 74089B   25098.23234072 -.00000015  00000+0  19691-3 0  9995
2 07530 101.9951 101.8292 0011903 240.2407 130.7068 12.53688052306250
TIROS N                 
1 11060U 78096A   25097.94992304  .00000373  00000+0  19800-3 0  9994
2 11060  98.4948 132.8290 0011522  66.9575 293.2815 14.19155479617017
PHASE 3B (AO-10)        
1 14129U 83058B   25095.29122068 -.00000103  00000+0  00000+0 0  9995
2 14129  26.9460 292.9652 6051074 354.6919   1.0482  2.05872166286470
HILAT                   
1 14154U 83063A   25098.03888392  .00001077  00000+0  34583-3 0  9990
2 14154  82.0269 205.4667 0040185 167.4880   6.5186 14.38261451185281
UOSAT 2 (UO-11)         
1 14781U 84021B   25097.91450059  .00003442  00000+0  37046-3 0  9997
2 14781  97.7480  65.5566 0007889 171.1602 188.9755 14.89108215192319
NOAA 9                  
1 15427U 84123A   25097.95341962  .00000304  00000+0  17476-3 0  9993
2 15427  99.1253 108.8195 0015369 139.3620 278.2874 14.16893963 81782
GEOSAT                  
1 15595U 85021A   25098.35933738  .00000712  00000+0  27063-3 0  9996
2 15595 108.0560 256.4651 0001497 253.0622 107.0356 14.39616658100481
EUTELSAT 1-F4 (ECS 4)   
1 18351U 87078B   25098.16199153 -.00000050  00000+0  00000+0 0  9991
2 18351  14.1397 345.1774 0010993  32.8938 148.3219  0.98687393122445
PACSAT (AO-16)          
1 20439U 90005D   25097.82333927  .00000382  00000+0  15424-3 0  9993
2 20439  98.8938 117.2234 0011678  70.9896 102.3121 14.33735350839540
LUSAT (LO-19)           
1 20442U 90005G   25097.93581093  .00000412  00000+0  16449-3 0  9990
2 20442  98.9002 102.3367 0012397  46.3507 313.8702 14.33917538840012
IRS-1B                  
1 21688U 91061A   25098.20031934  .00000361  00000+0  28769-3 0  9992
2 21688  99.3984  90.5795 0025398 104.4260 266.6412 13.97780827607976
COSMOS 2197             
1 22034U 92042A   25097.91407339  .00000028  00000+0  92061-4 0  9998
2 22034  82.5940 147.1016 0012888 178.8653 355.5985 12.64233446510287
PEGASUS R/B             
1 22491U 93009C   25097.93411092  .00002476  00000+0  48949-3 0  9996
2 22491  24.9784 307.0855 0044994  95.5818 264.9827 14.57020960706069
EYESAT A (AO-27)        
1 22825U 93061C   25098.53827964  .00000294  00000+0  12939-3 0  9997
2 22825  98.7428 159.7676 0007341 297.9263  62.1176 14.30770086645119
ITAMSAT (IO-26)         
1 22826U 93061D   25097.87580468  .00000317  00000+0  13714-3 0  9997
2 22826  98.7376 158.9800 0007772 282.1618  77.8694 14.31179444645299
RADIO ROSTO (RS-15)     
1 23439U 94085A   25097.91804421 -.00000012  00000+0  86954-3 0  9997
2 23439  64.8151 287.1414 0145822  86.5756 275.1835 11.27581367246828
JAS-2 (FO-29)           
1 24278U 96046B   25098.12936882  .00000042  00000+0  76146-4 0  9994
2 24278  98.5822   0.2263 0350532 144.2546 218.2616 13.53242908414570
FORTE                   
1 24920U 97047A   25098.18817507  .00000691  00000+0  30307-3 0  9996
2 24920  69.9521 276.3405 0021215 158.1715 202.0316 14.27655429436863
NOAA 15                 
1 25338U 98030A   25098.47566793  .00000394  00000+0  17973-3 0  9997
2 25338  98.5416 125.0849 0010444 174.6499 185.4795 14.26935694399546
TECHSAT 1B (GO-32)      
1 25397U 98043D   25098.45117414  .00000259  00000+0  13218-3 0  9994
2 25397  98.9659  76.2900 0002096  56.3934 303.7444 14.24291244389665
ISS (ZARYA)             
1 25544U 98067A   25098.48808397  .00015800  00000+0  29071-3 0  9996
2 25544  51.6369 292.2364 0004981  21.7216 338.3983 15.49351421504350
ORSTED                  
1 25635U 99008B   25098.23756590  .00001319  00000+0  30392-3 0  9991
2 25635  96.4459 100.6137 0134018 140.9998 220.0961 14.50986551379143
LANDSAT 7               
1 25682U 99020A   25097.91118122  .00001075  00000+0  22564-3 0  9995
2 25682  97.8674 116.5852 0001678 104.2086  13.7861 14.61503264382176
ORBCOMM FM36            
1 25984U 99065E   25097.96008612  .00002449  00000+0  85060-3 0  9992
2 25984  45.0388  63.6496 0005143 309.8894  50.1502 14.37886711324318
DMSP 5D-3 F15 (USA 147) 
1 25991U 99067A   25097.91906432  .00000386  00000+0  21376-3 0  9992
2 25991  99.0454 124.8424 0010394 154.8333 332.1309 14.17342828308987
OPAL (OO-38)            
1 26063U 00004C   25097.84700576  .00000355  00000+0  13686-3 0  9990
2 26063 100.2232 309.1397 0035842 184.0865 176.0028 14.37741392320724
IMAGE                   
1 26113U 00017A   25096.89141860  .00000622  00000+0  11594-1 0  9990
2 26113  93.8819 308.6552 7664937 340.1136   1.8934  1.68660758154149
CLUSTER II-FM7 (SAMBA)  
1 26410U 00041A   25097.88156569 -.00000160  00000+0  00000+0 0  9995
2 26410 143.2370   8.1127 8227647 223.4044   0.3882  0.44774333 18352
CLUSTER II-FM5 (RUMBA)  
1 26463U 00045A   25097.90193893  .00007654  00000+0  00000+0 0  9995
2 26463 153.3651  63.1526 9034661 280.8781   0.5358  0.42897335 18240
CLUSTER II-FM8 (TANGO)  
1 26464U 00045B   25098.89145703 -.00000141  00000+0  00000+0 0  9997
2 26464 143.4889   8.4952 8231848 223.6470   0.7154  0.44420423 18365
MEGSAT-1                
1 26546U 00057B   25098.18510782  .00007246  00000+0  56538-3 0  9999
2 26546  64.5536  19.0684 0012348 303.5497  56.4439 15.01787739332334
PHASE 3D (AO-40)        
1 26609U 00072B   25098.16283572 -.00000014  00000+0  00000+0 0  9994
2 26609   9.2568  51.5192 7973740  47.3943 356.2689  1.25589652112180
ODIN                    
1 26702U 01007A   25097.94919404  .00026308  00000+0  72458-3 0  9995
2 26702  97.4540 120.4221 0004251 327.0890  33.0088 15.37118740322568
OMNI-M1                 
1 26857U 01026A   25098.03515440 -.00000060  00000+0  00000+0 0  9998
2 26857  45.0111 345.3645 0015874 312.7423  47.1634  3.92402126344172
PCSAT (NO-44)           
1 26931U 01043C   25098.26341949  .00000474  00000+0  20865-3 0  9999
2 26931  67.0500 288.9561 0005571 269.6964  90.3499 14.31687908228340
PROBA-1                 
1 26958U 01049B   25098.46496735  .00004546  00000+0  31486-3 0  9995
2 26958  97.9449  87.9886 0058787 149.2536 211.2155 15.04780723278242
SPOT 5                  
1 27421U 02021A   25098.12230488  .00001093  00000+0  24086-3 0  9998
2 27421  98.0433 149.9001 0130625 187.7568 172.1612 14.54194326199635
FENGYUN 1D              
1 27431U 02024B   25098.35319283  .00000153  00000+0  11187-3 0  9992
2 27431  99.0127 144.1949 0015815  29.1387 331.0662 14.10129611178260
SAUDISAT 1C (SO-50)     
1 27607U 02058C   25097.91127225  .00003813  00000+0  49491-3 0  9993
2 27607  64.5555  33.9454 0048926 349.0505  10.9531 14.81363313199941
CORIOLIS                
1 27640U 03001A   25097.97838062  .00000330  00000+0  17642-3 0  9997
2 27640  98.7151 106.5511 0014616  30.7447 329.4582 14.19759876152428
CUTE-1 (CO-55)          
1 27844U 03031E   25098.00243119  .00000809  00000+0  37183-3 0  9997
2 27844  98.6787 107.0789 0009902  16.7666 343.3839 14.23925234129769
